      2.10          N: GNSS NAV DATA                        RINEX VERSION / TYPE
fic2rin                                 08/04/2022 00:16:52 PGM / RUN BY / DATE
                                                            END OF HEADER
5  22  8  3  2  0  0.0 -.914656557143D-04 -.136424205266D-11  .000000000000D+00
     .390000000000D+02 -.859375000000D+01  .465876548485D-08 -.194581783265D+01
    -.480562448502D-06  .612533953972D-02  .365264713764D-05  .515376359940D+04
     .266400000000D+06  .670552253723D-07  .235867193318D+01  .130385160446D-07
     .961795511695D+00  .301437500000D+03  .107785841722D+01 -.828213069827D-08
     .261082303697D-09  .100000000000D+01  .222100000000D+04  .000000000000D+00
     .240000000000D+01  .000000000000D+00 -.111758708954D-07  .390000000000D+02
     .259200000000D+06  .400000000000D+01
3  22  8  3  2  0  0.0 -.322995707393D-03 -.886757334229D-11  .000000000000D+00
     .990000000000D+02 -.743750000000D+01  .448482966830D-08  .639824591194D+00
    -.627711415291D-06  .444172543939D-02  .451318919659D-05  .515357452965D+04
     .266400000000D+06 -.800937414169D-07  .240130459614D+01  .130385160446D-07
     .974803189700D+00  .300062500000D+03  .102066638246D+01 -.827105880851D-08
     .165364030933D-09  .100000000000D+01  .222100000000D+04  .000000000000D+00
     .340000000000D+01  .000000000000D+00  .186264514923D-08  .990000000000D+02
     .259200000000D+06  .400000000000D+01
2  22  8  3  2  0  0.0 -.650068745017D-03  .909494701773D-12  .000000000000D+00
     .760000000000D+02  .315625000000D+02  .404731144391D-08  .174091170737D+01
     .152364373207D-05  .199544769712D-01  .891834497452D-05  .515487750435D+04
     .266400000000D+06  .379979610443D-06  .127477089041D+01 -.344589352608D-06
     .966116487475D+00  .204687500000D+03 -.140056225968D+01 -.775032283206D-08
     .251439044874D-09  .100000000000D+01  .222100000000D+04  .000000000000D+00
     .240000000000D+01  .000000000000D+00 -.172294676304D-07  .760000000000D+02
     .259200000000D+06  .400000000000D+01
1  22  8  3  2  0  0.0  .309275463223D-03 -.716227077646D-11  .000000000000D+00
     .104000000000D+03  .404687500000D+02  .368265339730D-08  .174709696889D+01
     .198371708393D-05  .120265311562D-01  .984035432339D-05  .515366455078D+04
     .266400000000D+06 -.210478901863D-06  .136757221936D+01 -.894069671631D-07
     .988056142013D+00  .204312500000D+03  .938224571837D+00 -.780425364992D-08
     .275011455331D-09  .100000000000D+01  .222100000000D+04  .000000000000D+00
     .240000000000D+01  .000000000000D+00  .512227416039D-08  .104000000000D+03
     .259200000000D+06  .400000000000D+01
8  22  8  3  2  0  0.0 -.788499601185D-04 -.159161572810D-11  .000000000000D+00
     .720000000000D+02 -.327187500000D+02  .435553856852D-08 -.233041207755D+01
    -.166706740856D-05  .740839715581D-02  .872276723385D-05  .515357030487D+04
     .266400000000D+06 -.931322574615D-08  .283988640055D+00 -.596046447754D-07
     .963012069981D+00  .212250000000D+03  .168262009657D+00 -.801676250177D-08
    -.390016245742D-09  .100000000000D+01  .222100000000D+04  .000000000000D+00
     .240000000000D+01  .000000000000D+00  .512227416039D-08  .720000000000D+02
     .259200000000D+06  .400000000000D+01
7  22  8  3  2  0  0.0  .316592864692D-03 -.193267624127D-11  .000000000000D+00
     .530000000000D+02  .323125000000D+02  .492413368136D-08  .110585929685D+01
     .192038714886D-05  .163492142456D-01  .109784305096D-04  .515365349960D+04
     .266400000000D+06 -.175088644028D-06 -.178342469631D+01  .189989805222D-06
     .950384292783D+00  .166687500000D+03 -.224853033049D+01 -.843642283945D-08
     .127148153374D-09  .100000000000D+01  .222100000000D+04  .000000000000D+00
     .240000000000D+01  .000000000000D+00 -.111758708954D-07  .530000000000D+02
     .259200000000D+06  .400000000000D+01
6  22  8  3  2  0  0.0  .410376582295D-03  .147792889038D-10  .000000000000D+00
     .560000000000D+02  .317187500000D+02  .364372320427D-08  .198582756834D+01
     .179186463356D-05  .244171824306D-02  .901706516743D-05  .515377234650D+04
     .266400000000D+06  .149011611938D-07  .135929368591D+01  .577419996262D-07
     .987379020139D+00  .218312500000D+03 -.880524316412D+00 -.763924677672D-08
     .278225874939D-09  .100000000000D+01  .222100000000D+04  .000000000000D+00
     .240000000000D+01  .000000000000D+00  .372529029846D-08  .560000000000D+02
     .259200000000D+06  .400000000000D+01
4  22  8  3  2  0  0.0 -.138060655445D-03  .488853402203D-11  .000000000000D+00
     .125000000000D+03 -.683750000000D+02  .460340603605D-08 -.264825084843D+01
    -.346824526787D-05  .191190908663D-02  .982359051704D-05  .515376875496D+04
     .266400000000D+06  .204890966415D-07 -.280074800667D+01 -.186264514923D-07
     .961951997116D+00  .195250000000D+03 -.304616393840D+01 -.801461955536D-08
    -.149649090628D-09  .100000000000D+01  .222100000000D+04  .000000000000D+00
     .240000000000D+01  .000000000000D+00 -.465661287308D-08  .893000000000D+03
     .259200000000D+06  .400000000000D+01
10 22  8  3  2  0  0.0 -.514416489750D-03 -.134150468512D-10  .000000000000D+00
     .230000000000D+02 -.153437500000D+02  .451840249531D-08 -.246511019533D+00
    -.650063157082D-06  .775129836984D-02  .423192977905D-05  .515367966270D+04
     .266400000000D+06  .800937414169D-07  .239857704097D+01  .106170773506D-06
     .974593411636D+00  .306437500000D+03 -.250779760507D+01 -.834677624816D-08
     .188579283656D-09  .100000000000D+01  .222100000000D+04  .000000000000D+00
     .240000000000D+01  .000000000000D+00  .232830643654D-08  .230000000000D+02
     .259200000000D+06  .400000000000D+01
9  22  8  3  2  0  0.0 -.312429852784D-03  .409272615798D-11  .000000000000D+00
     .510000000000D+02 -.690000000000D+02  .481448625696D-08 -.182426293078D+01
    -.337697565556D-05  .230440148152D-02  .901520252228D-05  .515378490829D+04
     .266400000000D+06  .353902578354D-07 -.285503561946D+01  .204890966415D-07
     .955059875517D+00  .205406250000D+03  .190065543909D+01 -.816105422638D-08
    -.140005831805D-09  .100000000000D+01  .222100000000D+04  .000000000000D+00
     .240000000000D+01  .000000000000D+00  .139698386192D-08  .510000000000D+02
     .259200000000D+06  .400000000000D+01
23 22  8  3  2  0  0.0 -.355094671249D-04 -.147792889038D-11  .000000000000D+00
     .130000000000D+02 -.110937500000D+02  .458233372974D-08  .101716025205D+01
    -.581145286560D-06  .244726485107D-02  .405870378017D-05  .515371791840D+04
     .266400000000D+06  .465661287308D-07  .237286534725D+01  .651925802231D-07
     .969670136390D+00  .307593750000D+03  .299014562037D+01 -.826320133836D-08
     .170007081477D-09  .100000000000D+01  .222100000000D+04  .000000000000D+00
     .240000000000D+01  .000000000000D+00 -.838190317154D-08  .130000000000D+02
     .259200000000D+06  .400000000000D+01
27 22  8  3  2  0  0.0  .220555812120D-03 -.795807864051D-12  .000000000000D+00
     .180000000000D+02 -.294375000000D+02  .406374069968D-08 -.229227632676D+01
    -.144727528095D-05  .105353789404D-01  .913254916668D-05  .515366163254D+04
     .266400000000D+06  .745058059692D-07  .304800809000D+00 -.689178705215D-07
     .971785619800D+00  .208000000000D+03  .690825303555D+00 -.778675292094D-08
    -.351086052715D-09  .100000000000D+01  .222100000000D+04  .000000000000D+00
     .240000000000D+01  .000000000000D+00  .139698386192D-08  .180000000000D+02
     .259200000000D+06  .400000000000D+01
21 22  8  3  2  0  0.0  .160775147378D-03 -.227373675443D-12  .000000000000D+00
     .520000000000D+02  .536250000000D+02  .411731435981D-08 -.223425522561D+01
     .312738120556D-05  .242851804942D-01  .102594494820D-04  .515372638321D+04
     .266400000000D+06 -.100582838058D-06  .127207530439D+01  .514090061188D-06
     .960423118987D+00  .179937500000D+03 -.915201840047D+00 -.778210987040D-08
     .255010622216D-09  .100000000000D+01  .222100000000D+04  .000000000000D+00
     .240000000000D+01  .000000000000D+00 -.102445483208D-07  .520000000000D+02
     .259200000000D+06  .400000000000D+01
24 22  8  3  2  0  0.0  .179648399353D-03 -.109139364213D-10  .000000000000D+00
     .320000000000D+02  .320312500000D+02  .515092884258D-08  .207739997296D+01
     .158138573170D-05  .127255647676D-01  .100936740637D-04  .515368497658D+04
     .266400000000D+06 -.277534127235D-06 -.186904616816D+01 -.234693288803D-06
     .933950244125D+00  .171593750000D+03  .825048109011D+00 -.821819946385D-08
     .273225666660D-09  .100000000000D+01  .222100000000D+04  .000000000000D+00
     .240000000000D+01  .000000000000D+00  .279396772385D-08  .320000000000D+02
     .259200000000D+06  .400000000000D+01
26 22  8  3  2  0  0.0  .221682246774D-03  .204636307899D-11  .000000000000D+00
     .330000000000D+02  .229375000000D+02  .550058626435D-08 -.517543100330D+00
     .111572444439D-05  .703289534431D-02  .445730984211D-05  .515378583908D+04
     .266400000000D+06  .124797224998D-06 -.798378002071D+00  .596046447754D-07
     .936624151161D+00  .280718750000D+03  .383170394048D+00 -.874286417539D-08
    -.146077513286D-09  .100000000000D+01  .222100000000D+04  .000000000000D+00
     .240000000000D+01  .000000000000D+00  .698491930962D-08  .330000000000D+02
     .259200000000D+06  .400000000000D+01
17 22  8  3  2  0  0.0  .644151587039D-03  .432009983342D-11  .000000000000D+00
     .260000000000D+02 -.305625000000D+02  .393659254631D-08 -.229093595733D+01
    -.153481960297D-05  .135724331485D-01  .890344381332D-05  .515359230614D+04
     .266400000000D+06  .283122062683D-06  .368400961836D+00  .353902578354D-07
     .978309874556D+00  .218250000000D+03 -.148744455333D+01 -.760745973838D-08
    -.438232539859D-09  .100000000000D+01  .222100000000D+04  .000000000000D+00
     .240000000000D+01  .000000000000D+00 -.111758708954D-07  .260000000000D+02
     .259200000000D+06  .400000000000D+01
